,Unnamed: 0,Logradouro,Numero/KM,Município,Longitude,Latitude,Endereço,Location
1100,135732,ACESSO AVENIDA MARGINAL DO RIO PINHEIROS,1000,SAO PAULO,,,"ACESSO AVENIDA MARGINAL DO RIO PINHEIROS, 1000, SAO PAULO","[-23.5851518802915, -46.6928998802915]"
1101,136626,AVENIDA RAIMUNDO PEREIRA DE MAGALHAES,0,SAO PAULO,,,"AVENIDA RAIMUNDO PEREIRA DE MAGALHAES, 0, SAO PAULO","[-23.4123449802915, -46.7353549802915]"
1102,136670,AVENIDA ESCOLA POLITECNICA,100,SAO PAULO,,,"AVENIDA ESCOLA POLITECNICA, 100, SAO PAULO","[-23.5595688802915, -46.7466419802915]"
1103,137033,AVENIDA CORONEL SEZEFREDO FAGUNDES,19000,SAO PAULO,,,"AVENIDA CORONEL SEZEFREDO FAGUNDES, 19000, SAO PAULO","[-23.4064847802915, -46.5826016802915]"
1104,137060,AVENIDA ALBERTO SOARES SAMPAIO,100,MAUA,,,"AVENIDA ALBERTO SOARES SAMPAIO, 100, MAUA","[-23.6648848802915, -46.46927958029151]"
1105,137072,AVENIDA GAGO COUTINHO,100,SANTO ANDRE,,,"AVENIDA GAGO COUTINHO, 100, SANTO ANDRE","[-23.6580145802915, -46.55493748029149]"
1106,137088,AVENIDA IMIRIM,1854,SAO PAULO,,,"AVENIDA IMIRIM, 1854, SAO PAULO","[-23.4915602802915, -46.6517998802915]"
1107,137254,AVENIDA ARICANDUVA,0,SAO PAULO,,,"AVENIDA ARICANDUVA, 0, SAO PAULO","[-23.5672306802915, -46.5082644802915]"
1108,137411,AVENIDA IMPERADOR,3183,SAO PAULO,,,"AVENIDA IMPERADOR, 3183, SAO PAULO","[-23.5205411802915, -46.4729307802915]"
1109,137459,Rodovia Presidente Dutra,0,GUARULHOS,,,"Rodovia Presidente Dutra, 0, GUARULHOS","[-23.49109978029151, -46.5494592802915]"
1110,137581,Rodovia Castelo Branco,10,SAO PAULO,,,"Rodovia Castelo Branco, 10, SAO PAULO","[-23.5112329802915, -46.8185051802915]"
1111,137780,AVENIDA DONA BELMIRA MARIN,100,SAO PAULO,,,"AVENIDA DONA BELMIRA MARIN, 100, SAO PAULO","[-23.7346261802915, -46.6989712802915]"
1112,138234,AVENIDA SAPOPEMBA,2504,SAO PAULO,,,"AVENIDA SAPOPEMBA, 2504, SAO PAULO","[-23.5750548802915, -46.56714718029151]"
1113,138236,VIADUTO ANTARTICA,100,SAO PAULO,,,"VIADUTO ANTARTICA, 100, SAO PAULO","[-23.5282323802915, -46.6741400802915]"
1114,138293,AVENIDA SAPOPEMBA,1002,SAO PAULO,,,"AVENIDA SAPOPEMBA, 1002, SAO PAULO","[-23.56576898029151, -46.57262108029149]"
1115,138309,RUA CORNELIO DE ARZAO,1511,SAO PAULO,,,"RUA CORNELIO DE ARZAO, 1511, SAO PAULO","[-23.51707328029151, -46.39699918029149]"
1116,138619,ESTRADA PROFESSOR LAUDELINO ALVES FERREIRA,1278,FRANCO DA ROCHA,,,"ESTRADA PROFESSOR LAUDELINO ALVES FERREIRA, 1278, FRANCO DA ROCHA","[-23.3054751802915, -46.7264995802915]"
1117,138658,ESTRADA DE ITAPECERICA,3023,SAO PAULO,,,"ESTRADA DE ITAPECERICA, 3023, SAO PAULO","[-23.6554461802915, -46.76104858029149]"
1118,138999,AVENIDA JOSE MARIA WHITAKER,1365,SAO PAULO,,,"AVENIDA JOSE MARIA WHITAKER, 1365, SAO PAULO","[-23.6125675802915, -46.6461182802915]"
1119,139009,AVENIDA MORUMBI,6839,SAO PAULO,,,"AVENIDA MORUMBI, 6839, SAO PAULO","[-23.6186201802915, -46.70638278029149]"
1120,139206,Avenida Assis Chateaubriand,661,SAO PAULO,,,"Avenida Assis Chateaubriand, 661, SAO PAULO","[-23.5191118802915, -46.63943508029151]"
1121,139230,AVENIDA MUTINGA,364,SAO PAULO,,,"AVENIDA MUTINGA, 364, SAO PAULO","[-23.4893886302915, -46.7317470802915]"
1122,139233,ESTRADA DE MOGI DAS CRUZES,1300,SAO PAULO,,,"ESTRADA DE MOGI DAS CRUZES, 1300, SAO PAULO","[-23.5161887802915, -46.48878388029149]"
1123,139684,ALAMEDA AMERICA,100,SANTANA DE PARNAIBA,,,"ALAMEDA AMERICA, 100, SANTANA DE PARNAIBA","[-23.4788168802915, -46.8325693802915]"
1124,139692,ACESSO SAO MIGUEL,4662,SAO PAULO,,,"ACESSO SAO MIGUEL, 4662, SAO PAULO","[-23.5089100802915, -46.4896722802915]"
1125,139754,AVENIDA SILVESTRE PIRES DE FREITAS,100,GUARULHOS,,,"AVENIDA SILVESTRE PIRES DE FREITAS, 100, GUARULHOS","[-23.4310155802915, -46.5037693802915]"
1126,140060,ESTRADA DA LAGOA,2577,VARGEM GRANDE PAULISTA,,,"ESTRADA DA LAGOA, 2577, VARGEM GRANDE PAULISTA","[-23.5958879, -47.0303319]"
1127,140223,Avenida Assis Chateaubriand,608,SAO PAULO,,,"Avenida Assis Chateaubriand, 608, SAO PAULO","[-23.5191189802915, -46.6389973802915]"
1128,140477,AVENIDA ARICANDUVA,11200,SAO PAULO,,,"AVENIDA ARICANDUVA, 11200, SAO PAULO","[-23.5936662802915, -46.4771725802915]"
1129,140891,AVENIDA JOSE PINHEIRO BORGES,100,SAO PAULO,,,"AVENIDA JOSE PINHEIRO BORGES, 100, SAO PAULO","[-23.5405958802915, -46.47098468029149]"
1130,141246,AVENIDA CONDE DE FRONTIN,10,SAO PAULO,,,"AVENIDA CONDE DE FRONTIN, 10, SAO PAULO","[-23.5383987802915, -46.55935968029149]"
1131,141363,ESTRADA DA BARONESA,1012,SAO PAULO,,,"ESTRADA DA BARONESA, 1012, SAO PAULO","[-23.6957289802915, -46.76424728029149]"
1132,141588,Rodovia Professor Alfredo Rolim de Moura,0,MOGI DAS CRUZES,,,"Rodovia Professor Alfredo Rolim de Moura, 0, MOGI DAS CRUZES","[-23.5438650802915, -46.1548396802915]"
1133,141611,AVENIDA BRIGADEIRO LUIS ANTONIO,3250,SAO PAULO,,,"AVENIDA BRIGADEIRO LUIS ANTONIO, 3250, SAO PAULO","[-23.5755328802915, -46.65737068029151]"
1134,141809,RUA GOMES DE CARVALHO,491,SAO PAULO,,,"RUA GOMES DE CARVALHO, 491, SAO PAULO","[-23.6015506802915, -46.6800531802915]"
1135,141826,AVENIDA MARECHAL TITO,2614,SAO PAULO,,,"AVENIDA MARECHAL TITO, 2614, SAO PAULO","[-23.4956728802915, -46.4222998302915]"
1136,142204,ESTRADA ENGENHEIRO MARCILAC,14487,SAO PAULO,,,"ESTRADA ENGENHEIRO MARCILAC, 14487, SAO PAULO","[-23.9080133802915, -46.70929478029151]"
1137,142221,PRESIDENTE PRESIDENTE CASTELLO BRANCO,0,BARUERI,,,"PRESIDENTE PRESIDENTE CASTELLO BRANCO, 0, BARUERI","[-23.5108128802915, -46.8185928802915]"
1138,142229,AVENIDA DOUTOR EDUARDO COTCHING,410,SAO PAULO,,,"AVENIDA DOUTOR EDUARDO COTCHING, 410, SAO PAULO","[-23.5637447802915, -46.55738778029149]"
1139,142648,ESTRADA DE ITAPECERICA,10000,SAO PAULO,,,"ESTRADA DE ITAPECERICA, 10000, SAO PAULO","[-23.6867558802915, -46.8020293802915]"
1140,142886,TERMINAL PARELHEIROS,100,SAO PAULO,,,"TERMINAL PARELHEIROS, 100, SAO PAULO","[-23.8295008802915, -46.7283704802915]"
1141,143178,Avenida Engenheiro Billings,300,SAO PAULO,,,"Avenida Engenheiro Billings, 300, SAO PAULO","[-23.5514090802915, -46.73172758029149]"
1142,143192,AVENIDA QUEIROS DOS SANTOS,1,SANTO ANDRE,,,"AVENIDA QUEIROS DOS SANTOS, 1, SANTO ANDRE","[-23.6542869802915, -46.52926538029149]"
1143,143400,RUA SERGIO SHIGERU HARADA,1556,CAJAMAR,,,"RUA SERGIO SHIGERU HARADA, 1556, CAJAMAR","[-23.4184385802915, -46.8340050802915]"
1144,143417,ACESSO AVENIDA PAES DE BARROS,10,SAO PAULO,,,"ACESSO AVENIDA PAES DE BARROS, 10, SAO PAULO","[-23.5569280802915, -46.6016802802915]"
1145,143458,RUA KUMAKI AOKI,363,SAO PAULO,,,"RUA KUMAKI AOKI, 363, SAO PAULO","[-23.4815490802915, -46.4274083802915]"
1146,143793,ESTRADA DA BARONESA,639,SAO PAULO,,,"ESTRADA DA BARONESA, 639, SAO PAULO","[-23.6888407302915, -46.7578261802915]"
1147,143813,ACESSO AVENIDA PRESIDENTE JOAO CAFE FILHO,100,SAO BERNARDO DO CAMPO,,,"ACESSO AVENIDA PRESIDENTE JOAO CAFE FILHO, 100, SAO BERNARDO DO CAMPO","[-23.7268107802915, -46.5592256802915]"
1148,143817,AVENIDA PRESTES MAIA,100,SAO PAULO,,,"AVENIDA PRESTES MAIA, 100, SAO PAULO","[-23.5450319802915, -46.63629908029149]"
1149,143972,VIADUTO FREDERICO EDUARDO MAYR,100,SAO PAULO,,,"VIADUTO FREDERICO EDUARDO MAYR, 100, SAO PAULO","[-23.4907477802915, -46.6662192802915]"
1150,143980,Rodovia Hélio Smidt,2,GUARULHOS,,,"Rodovia Hélio Smidt, 2, GUARULHOS","[-23.4627889802915, -46.4920701802915]"
1151,144017,RUA MALMEQUERDOCAMPO,1610,SAO PAULO,,,"RUA MALMEQUERDOCAMPO, 1610, SAO PAULO","[-23.5873630802915, -46.4508902802915]"
1152,144086,RUA PIRAPORINHA,1112,SAO PAULO,,,"RUA PIRAPORINHA, 1112, SAO PAULO","[-23.6826465802915, -46.7593244802915]"
1153,144167,ESTRADA DOS ALVARENGAS,999,SAO BERNARDO DO CAMPO,,,"ESTRADA DOS ALVARENGAS, 999, SAO BERNARDO DO CAMPO","[-23.7458503302915, -46.6095551802915]"
1154,144206,ESTRADA CAUCAIA DO ALTO,3350,COTIA,,,"ESTRADA CAUCAIA DO ALTO, 3350, COTIA","[-23.6425045802915, -46.9911682802915]"
1155,144301,RUA BERNARDO DADDI,0,SAO PAULO,,,"RUA BERNARDO DADDI, 0, SAO PAULO","[-23.4969544802915, -46.43486118029149]"
1156,144386,AVENIDA RENOVA DOS SANTOS,100,ARUJA,,,"AVENIDA RENOVA DOS SANTOS, 100, ARUJA","[-23.3993458802915, -46.3351424802915]"
1157,144682,RUA MARIA BATISTA,241,SAO PAULO,,,"RUA MARIA BATISTA, 241, SAO PAULO","[-23.6703579802915, -46.7459452802915]"
1158,144714,RUA CAFE FILHO,340,SAO BERNARDO DO CAMPO,,,"RUA CAFE FILHO, 340, SAO BERNARDO DO CAMPO","[-23.7052113802915, -46.5664832802915]"
1159,144734,AVENIDA JORNALISTA ROBERTO MARINHO,100,SAO PAULO,,,"AVENIDA JORNALISTA ROBERTO MARINHO, 100, SAO PAULO","[-23.6197877802915, -46.68447208029149]"
1160,144747,AVENIDA JOSE PINHEIRO BORGES,10,SAO PAULO,,,"AVENIDA JOSE PINHEIRO BORGES, 10, SAO PAULO","[-23.5281067802915, -46.43331918029149]"
1161,145120,RUA SAO CAETANO,939,EMBU DAS ARTES,,,"RUA SAO CAETANO, 939, EMBU DAS ARTES","[-23.6568961802915, -46.8086664802915]"
1162,145498,AVENIDA FRANCISCO RODRIGUES FILHO,100,MOGI DAS CRUZES,,,"AVENIDA FRANCISCO RODRIGUES FILHO, 100, MOGI DAS CRUZES","[-23.5204119802915, -46.19571018029149]"
1163,145521,AVENIDA JORNALISTA ROBERTO MARINHO,100,SAO PAULO,,,"AVENIDA JORNALISTA ROBERTO MARINHO, 100, SAO PAULO","[-23.6197877802915, -46.68447208029149]"
1164,145554,ACESSO AVENIDA PERI RONCHETTI,635,SAO PAULO,,,"ACESSO AVENIDA PERI RONCHETTI, 635, SAO PAULO","[-23.4641352802915, -46.6533546802915]"
1165,145739,AVENIDA JACU PESSEGO,3788,SAO PAULO,,,"AVENIDA JACU PESSEGO, 3788, SAO PAULO","[-23.5922042802915, -46.4451294802915]"
1166,145846,AVENIDA RUI BARBOSA,2337,CARAPICUIBA,,,"AVENIDA RUI BARBOSA, 2337, CARAPICUIBA","[-23.5238877802915, -46.8481185802915]"
1167,146422,AVENIDA JEAN LIEUTAUD,100,RIO GRANDE DA SERRA,,,"AVENIDA JEAN LIEUTAUD, 100, RIO GRANDE DA SERRA","[-23.7520919802915, -46.40188508029149]"
1168,146424,ESTRADA DA CAMA PATENTE,2400,SAO BERNARDO DO CAMPO,,,"ESTRADA DA CAMA PATENTE, 2400, SAO BERNARDO DO CAMPO","[-23.7568306802915, -46.59242568029149]"
1169,146446,AVENIDA DONA BELMIRA MARIN,1036,SAO PAULO,,,"AVENIDA DONA BELMIRA MARIN, 1036, SAO PAULO","[-23.7408309802915, -46.69314908029149]"
1170,146602,ACESSO VIADUTO ENGENHEIRO ALBERTO BADRA,1,SAO PAULO,,,"ACESSO VIADUTO ENGENHEIRO ALBERTO BADRA, 1, SAO PAULO","[-23.5369684802915, -46.54943988029149]"
1171,146760,RUA EDSON,100,SAO PAULO,,,"RUA EDSON, 100, SAO PAULO","[-23.6194871802915, -46.6815890802915]"
1172,146777,RUA EDMUNDO CARVALHO,129,SAO PAULO,,,"RUA EDMUNDO CARVALHO, 129, SAO PAULO","[-23.6264739802915, -46.5999509802915]"
1173,147103,VIADUTO DO GLICERIO,100,SAO PAULO,,,"VIADUTO DO GLICERIO, 100, SAO PAULO","[-23.5574862802915, -46.6303012802915]"
1174,147174,RUA DOS APIARIS,431,SAO PAULO,,,"RUA DOS APIARIS, 431, SAO PAULO","[-23.6978894802915, -46.6452907802915]"
1175,147379,ESTRADA DO M'BOI MIRIM,1100,SAO PAULO,,,"ESTRADA DO M'BOI MIRIM, 1100, SAO PAULO","[-23.72322938029151, -46.7866126802915]"
1176,147380,AVENIDA GENERAL ASDRUBAL DA CUNHA,785,SAO PAULO,,,"AVENIDA GENERAL ASDRUBAL DA CUNHA, 785, SAO PAULO","[-23.5953511802915, -46.7902100802915]"
1177,147506,AVENIDA ODAIR PACHECO PEDROSO,1000,EMBU DAS ARTES,,,"AVENIDA ODAIR PACHECO PEDROSO, 1000, EMBU DAS ARTES","[-23.6277059802915, -46.91511098029149]"
1178,147583,AVENIDA EMILIO RIBAS,100,GUARULHOS,,,"AVENIDA EMILIO RIBAS, 100, GUARULHOS","[-23.4712475802915, -46.5369437802915]"
1179,147805,Rodovia dos Imigrantes,10,SAO PAULO,,,"Rodovia dos Imigrantes, 10, SAO PAULO","[-23.6057421802915, -46.62761818029149]"
1180,147931,RUA JOAQUIM MOREIRA,648,GUARULHOS,,,"RUA JOAQUIM MOREIRA, 648, GUARULHOS","[-23.4594173802915, -46.4121747302915]"
1181,148307,AVENIDA ARICANDUVA,12050,SAO PAULO,,,"AVENIDA ARICANDUVA, 12050, SAO PAULO","[-23.59459208029151, -46.4736041302915]"
1182,148332,AVENIDA PEDROSO DE MORAIS,777,SAO PAULO,,,"AVENIDA PEDROSO DE MORAIS, 777, SAO PAULO","[-23.5649254802915, -46.6931824802915]"
1183,148365,AVENIDA ROTARY,2335,EMBU DAS ARTES,,,"AVENIDA ROTARY, 2335, EMBU DAS ARTES","[-23.6491813802915, -46.82104828029149]"
1184,148394,VIADUTO DO GLICERIO,1,SAO PAULO,,,"VIADUTO DO GLICERIO, 1, SAO PAULO","[-23.5574147802915, -46.62986118029149]"
1185,148512,AVENIDA ARICANDUVA,12050,SAO PAULO,,,"AVENIDA ARICANDUVA, 12050, SAO PAULO","[-23.59459208029151, -46.4736041302915]"
1186,149017,AVENIDA ELISIO TEIXEIRA LEITE,4184,SAO PAULO,,,"AVENIDA ELISIO TEIXEIRA LEITE, 4184, SAO PAULO","[-23.4634682802915, -46.7156777802915]"
1187,149133,ESTRADA PEDREIRA ALVARENGA,2568,DIADEMA,,,"ESTRADA PEDREIRA ALVARENGA, 2568, DIADEMA","[-23.7189294802915, -46.6277647802915]"
1188,149221,AVENIDA CARLOS CALDEIRA FILHO,13500,SAO PAULO,,,"AVENIDA CARLOS CALDEIRA FILHO, 13500, SAO PAULO","[-23.6505596802915, -46.7602594802915]"
1189,149236,AVENIDA MENDES DA ROCHA,529,SAO PAULO,,,"AVENIDA MENDES DA ROCHA, 529, SAO PAULO","[-23.4836892802915, -46.5724231302915]"
1190,149825,AVENIDA TRINTA E UM DE MARCO,2421,SAO BERNARDO DO CAMPO,,,"AVENIDA TRINTA E UM DE MARCO, 2421, SAO BERNARDO DO CAMPO","[-23.65854768029151, -46.59704968029149]"
1191,149929,AVENIDA DOUTOR TIMOTEO PENTEADO,3607,GUARULHOS,,,"AVENIDA DOUTOR TIMOTEO PENTEADO, 3607, GUARULHOS","[-23.4564705802915, -46.55875088029149]"
1192,150210,Rodovia Índio-Tibiriçá,0,SUZANO,,,"Rodovia Índio-Tibiriçá, 0, SUZANO","[-23.5687549802915, -46.30016378029149]"
1193,150481,ALAMEDA JAUAPERI,0,SAO PAULO,,,"ALAMEDA JAUAPERI, 0, SAO PAULO","[-23.6035080802915, -46.6661905802915]"
1194,150544,RUA GARCIA DE ORTA,953,SAO PAULO,,,"RUA GARCIA DE ORTA, 953, SAO PAULO","[-23.6858634302915, -46.7914548802915]"
1195,150563,AVENIDA NOSSA SENHORA DO O,177,SAO PAULO,,,"AVENIDA NOSSA SENHORA DO O, 177, SAO PAULO","[-23.5053657802915, -46.6858428802915]"
1196,150609,ESTRADA DE SANTA ISABEL,11,ARUJA,,,"ESTRADA DE SANTA ISABEL, 11, ARUJA","[-23.4092178802915, -46.3165401802915]"
1197,150861,PRACA EMBAIXADOR CIRO DE FREITAS VALLE,10,SAO PAULO,,,"PRACA EMBAIXADOR CIRO DE FREITAS VALLE, 10, SAO PAULO","[-23.6350467802915, -46.7131683802915]"
1198,151071,RUA PAULO DO VALE,100,EMBU DAS ARTES,,,"RUA PAULO DO VALE, 100, EMBU DAS ARTES","[-23.6489557802915, -46.8501270802915]"
