,Unnamed: 0,Logradouro,Numero/KM,Município,Longitude,Latitude,Endereço,Location
2250,296168,Avenida Assis Chateaubriand,0,SAO PAULO,,,"Avenida Assis Chateaubriand, 0, SAO PAULO","[-23.5627629802915, -46.65723088029149]"
2251,296488,RUA GEOVANE BATISTA PIRELI,100,SANTO ANDRE,,,"RUA GEOVANE BATISTA PIRELI, 100, SANTO ANDRE","[-23.6657309802915, -46.4912789802915]"
2252,296530,AVENIDA ALDA,2156,DIADEMA,,,"AVENIDA ALDA, 2156, DIADEMA","[-23.7082053802915, -46.6278873802915]"
2253,296548,ALAMEDA SANTO AMARO,2060,SAO PAULO,,,"ALAMEDA SANTO AMARO, 2060, SAO PAULO","[-23.6618975802915, -46.7062042802915]"
2254,296597,RUA JOSE FELIX DE OLIVEIRA,1197,COTIA,,,"RUA JOSE FELIX DE OLIVEIRA, 1197, COTIA","[-23.5847025302915, -46.8404741802915]"
2255,296620,AVENIDA CARLOS BARBOSA SANTOS,314,SAO PAULO,,,"AVENIDA CARLOS BARBOSA SANTOS, 314, SAO PAULO","[-23.7612377802915, -46.66932008029149]"
2256,296754,RUA MANUEL RODRIGUES SANTIAGO,100,FERRAZ DE VASCONCELOS,,,"RUA MANUEL RODRIGUES SANTIAGO, 100, FERRAZ DE VASCONCELOS","[-23.5129795802915, -46.3802257802915]"
2257,297022,ACESSO AVENIDA SPORT CLUB CORINTIANS PAULISTA,1,OSASCO,,,"ACESSO AVENIDA SPORT CLUB CORINTIANS PAULISTA, 1, OSASCO","[-23.5554682, -46.7938116]"
2258,297157,RUA MANOEL ANTONIO GOMES,383,CAJAMAR,,,"RUA MANOEL ANTONIO GOMES, 383, CAJAMAR","[-23.3385706802915, -46.8400423302915]"
2259,297164,AVENIDA PAULISTA,0,SAO PAULO,,,"AVENIDA PAULISTA, 0, SAO PAULO","[-23.5718715802915, -46.6469669802915]"
2260,297221,AVENIDA SANTOS DUMONT,10,SAO PAULO,,,"AVENIDA SANTOS DUMONT, 10, SAO PAULO","[-23.52792448029151, -46.6323414802915]"
2261,297326,VIADUTO POMPEIA,100,SAO PAULO,,,"VIADUTO POMPEIA, 100, SAO PAULO","[-23.5246015802915, -46.68131408029149]"
2262,297592,Rodovia Ayrton Senna da Silva,0,GUARULHOS,,,"Rodovia Ayrton Senna da Silva, 0, GUARULHOS","[-23.4720101802915, -46.40058268029149]"
2263,297643,AVENIDA CONDE FRANCISCO MATARAZZO,0,SAO CAETANO DO SUL,,,"AVENIDA CONDE FRANCISCO MATARAZZO, 0, SAO CAETANO DO SUL","[-23.6083377802915, -46.5715494802915]"
2264,297677,AVENIDA ITAPARK,1200,MAUA,,,"AVENIDA ITAPARK, 1200, MAUA","[-23.6762086802915, -46.4491738802915]"
2265,297691,RUA PADRE JOAO MANUEL,974,SAO PAULO,,,"RUA PADRE JOAO MANUEL, 974, SAO PAULO","[-23.5667582802915, -46.6674277802915]"
2266,297717,AVENIDA DO CURSINO,4815,SAO PAULO,,,"AVENIDA DO CURSINO, 4815, SAO PAULO","[-23.6436121302915, -46.6140140802915]"
2267,297735,RUA RIBEIRAO PRETO,266,GUARULHOS,,,"RUA RIBEIRAO PRETO, 266, GUARULHOS","[-23.3987088802915, -46.44034308029149]"
2268,298171,ESTRADA DO CAMPO LIMPO,100,SAO PAULO,,,"ESTRADA DO CAMPO LIMPO, 100, SAO PAULO","[-23.6498323802915, -46.7560004802915]"
2269,298228,RUA JOAO DO ESPIRITO SANTO,138,SAO PAULO,,,"RUA JOAO DO ESPIRITO SANTO, 138, SAO PAULO","[-23.6579061802915, -46.7338365802915]"
2270,298243,AVENIDA ENGENHEIRO ARMANDO DE ARRUDA PEREIRA,6600,DIADEMA,,,"AVENIDA ENGENHEIRO ARMANDO DE ARRUDA PEREIRA, 6600, DIADEMA","[-23.6719802802915, -46.63425238029149]"
2271,298835,AVENIDA RIO DAS PEDRAS,4039,SAO PAULO,,,"AVENIDA RIO DAS PEDRAS, 4039, SAO PAULO","[-23.5847892802915, -46.4959692802915]"
2272,299000,RUA CHICO MENDES,1302,BARUERI,,,"RUA CHICO MENDES, 1302, BARUERI","[-23.4936786802915, -46.8079264302915]"
2273,299282,AVENIDA LOTHAR WALDEMAR HOEHNE,100,MOGI DAS CRUZES,,,"AVENIDA LOTHAR WALDEMAR HOEHNE, 100, MOGI DAS CRUZES","[-23.5116660802915, -46.2056201302915]"
2274,299427,AVENIDA SANTOS DUMONT,10,SAO PAULO,,,"AVENIDA SANTOS DUMONT, 10, SAO PAULO","[-23.52792448029151, -46.6323414802915]"
2275,299474,AVENIDA MARGINAL DO RIO PINHEIROS,1,SAO PAULO,,,"AVENIDA MARGINAL DO RIO PINHEIROS, 1, SAO PAULO","[-23.6464660802915, -46.72883278029149]"
2276,299519,AVENIDA BARRO BRANCO,1,SAO PAULO,,,"AVENIDA BARRO BRANCO, 1, SAO PAULO","[-23.6520134802915, -46.63591368029149]"
2277,299646,AVENIDA MARGINAL DO RIBEIRAO,600,CARAPICUIBA,,,"AVENIDA MARGINAL DO RIBEIRAO, 600, CARAPICUIBA","[-23.5511096802915, -46.8233781802915]"
2278,299763,RUA SOLDADO ANTONIO MARTINS OLIVEIRA,2525,GUARULHOS,,,"RUA SOLDADO ANTONIO MARTINS OLIVEIRA, 2525, GUARULHOS","[-23.4887566802915, -46.54430118029149]"
2279,299984,ALAMEDA JAU,0,SAO PAULO,,,"ALAMEDA JAU, 0, SAO PAULO","[-23.5674342802915, -46.6563725802915]"
2280,300180,RUA LOEFGREEN,390,SAO PAULO,,,"RUA LOEFGREEN, 390, SAO PAULO","[-23.6008074802915, -46.6432995802915]"
2281,300398,ACESSO SAO MIGUEL,7199,SAO PAULO,,,"ACESSO SAO MIGUEL, 7199, SAO PAULO","[-23.5000697802915, -46.46829028029149]"
2282,300551,RUA VOLUNTARIOS DA PATRIA,1,SAO PAULO,,,"RUA VOLUNTARIOS DA PATRIA, 1, SAO PAULO","[-23.5196726802915, -46.6297619802915]"
2283,300625,RUA PEDRO CACUNDA,41,SAO PAULO,,,"RUA PEDRO CACUNDA, 41, SAO PAULO","[-23.4947098802915, -46.6133660802915]"
2284,300642,AVENIDA BARAO DE MAUA,22,MAUA,,,"AVENIDA BARAO DE MAUA, 22, MAUA","[-23.6676811302915, -46.4562183802915]"
2285,300662,ESTRADA DOS ROMEIROS,102,BARUERI,,,"ESTRADA DOS ROMEIROS, 102, BARUERI","[-23.5011520802915, -46.87920818029149]"
2286,300948,AVENIDA JACUPESSEGO,100,SAO PAULO,,,"AVENIDA JACUPESSEGO, 100, SAO PAULO","[-23.5507665802915, -46.48816378029149]"
2287,300994,ESTRADA DE ITAPECERICA,100,SAO PAULO,,,"ESTRADA DE ITAPECERICA, 100, SAO PAULO","[-23.6439207802915, -46.7388384802915]"
2288,301437,AVENIDA NOVA CANTAREIRA,1270,SAO PAULO,,,"AVENIDA NOVA CANTAREIRA, 1270, SAO PAULO","[-23.4853254802915, -46.61565738029149]"
2289,301551,Avenida Condessa Elisabeth de Robiano,175,SAO PAULO,,,"Avenida Condessa Elisabeth de Robiano, 175, SAO PAULO","[-23.5300095802915, -46.5983985802915]"
2290,301675,ACESSO CRUZEIRO DO SUL,133,SAO PAULO,,,"ACESSO CRUZEIRO DO SUL, 133, SAO PAULO","[-23.5320542802915, -46.62723578029149]"
2291,302032,AVENIDA ITAQUERA,1,SAO PAULO,,,"AVENIDA ITAQUERA, 1, SAO PAULO","[-23.5547783802915, -46.4946391802915]"
2292,302486,AVENIDA MARGINAL DO RIBEIRAO,1580,CARAPICUIBA,,,"AVENIDA MARGINAL DO RIBEIRAO, 1580, CARAPICUIBA","[-23.5584631802915, -46.82582258029149]"
2293,302490,Rodovia Ayrton Senna da Silva,0,GUARULHOS,,,"Rodovia Ayrton Senna da Silva, 0, GUARULHOS","[-23.4720101802915, -46.40058268029149]"
2294,302632,AVENIDA DONA RUICE FERRAZ ALVIN,100,DIADEMA,,,"AVENIDA DONA RUICE FERRAZ ALVIN, 100, DIADEMA","[-23.6875197802915, -46.6016208802915]"
2295,302711,AVENIDA SAPOPEMBA,7402,SAO PAULO,,,"AVENIDA SAPOPEMBA, 7402, SAO PAULO","[-23.5958191802915, -46.5285384802915]"
2296,303352,VIADUTO PRESIDENTE JUSCELINO KUBITSCHECK DE OLIVEI,5,MAUA,,,"VIADUTO PRESIDENTE JUSCELINO KUBITSCHECK DE OLIVEI, 5, MAUA","[-23.6699963802915, -46.4798876802915]"
2297,303474,AVENIDA CAPITAO MARIO TOLEDO DE CAMARGO,100,SANTO ANDRE,,,"AVENIDA CAPITAO MARIO TOLEDO DE CAMARGO, 100, SANTO ANDRE","[-23.6800646802915, -46.5068682802915]"
2298,303544,AVENIDA ITAQUERA,5000,SAO PAULO,,,"AVENIDA ITAQUERA, 5000, SAO PAULO","[-23.5537378802915, -46.4803794802915]"
2299,304064,ACESSO PARA  AIRTON SENA DA SILVA,0,GUARULHOS,,,"ACESSO PARA  AIRTON SENA DA SILVA, 0, GUARULHOS","[-23.4705033802915, -46.4047473802915]"
2300,304422,AVENIDA SAO JOAO,100,SAO PAULO,,,"AVENIDA SAO JOAO, 100, SAO PAULO","[-23.5465186802915, -46.6361912802915]"
2301,304507,RUA CASTRO VERDE,1,SAO PAULO,,,"RUA CASTRO VERDE, 1, SAO PAULO","[-23.6389239802915, -46.71762028029149]"
2302,304576,RUA SILVA TELES,1790,SAO PAULO,,,"RUA SILVA TELES, 1790, SAO PAULO","[-23.5255600802915, -46.6059701802915]"
2303,305044,PRACA DOS EXPEDICIONARIOS,100,SAO BERNARDO DO CAMPO,,,"PRACA DOS EXPEDICIONARIOS, 100, SAO BERNARDO DO CAMPO","[-23.6858710802915, -46.5568939802915]"
2304,305082,PARQUE RAPOSO TAVARES,13,SAO PAULO,,,"PARQUE RAPOSO TAVARES, 13, SAO PAULO","[-23.5897537802915, -46.75754758029149]"
2305,305290,MARGINAL MARGINAL TIETE CENTRAL,1,SAO PAULO,,,"MARGINAL MARGINAL TIETE CENTRAL, 1, SAO PAULO","[-23.5200540802915, -46.62441098029149]"
2306,305317,RUA TORIBATE,1,SAO PAULO,,,"RUA TORIBATE, 1, SAO PAULO","[-23.5941357802915, -46.6197050802915]"
2307,305323,AVENIDA WASHINGTON LUIS,0,SAO PAULO,,,"AVENIDA WASHINGTON LUIS, 0, SAO PAULO","[-23.6305459802915, -46.6681449802915]"
2308,305469,RUA QUARARIBEIA,199,SAO PAULO,,,"RUA QUARARIBEIA, 199, SAO PAULO","[-23.6717710802915, -46.6917171802915]"
2309,305487,AVENIDA JOSE PINHEIRO BORGES,1,SAO PAULO,,,"AVENIDA JOSE PINHEIRO BORGES, 1, SAO PAULO","[-23.5402989802915, -46.42517098029151]"
2310,306437,RUA SANTO ANTONIO DE OSSELA,816,SAO PAULO,,,"RUA SANTO ANTONIO DE OSSELA, 816, SAO PAULO","[-23.7550674802915, -46.6803414802915]"
2311,306494,RUA BRESSER,1401,SAO PAULO,,,"RUA BRESSER, 1401, SAO PAULO","[-23.5436226302915, -46.6083020302915]"
2312,306539,AVENIDA ANTONIA ROSA FIORAVANTE,100,MAUA,,,"AVENIDA ANTONIA ROSA FIORAVANTE, 100, MAUA","[-23.6642331802915, -46.45321988029149]"
2313,306578,AVENIDA JACUPESSEGO,100,SAO PAULO,,,"AVENIDA JACUPESSEGO, 100, SAO PAULO","[-23.5507665802915, -46.48816378029149]"
2314,306583,ESTRADA DOS ALVARENGAS,88008,SAO BERNARDO DO CAMPO,,,"ESTRADA DOS ALVARENGAS, 88008, SAO BERNARDO DO CAMPO","[-23.7569838, -46.6319212]"
2315,306658,CONTORNO RADIAL LESTE OESTE,450,SAO PAULO,,,"CONTORNO RADIAL LESTE OESTE, 450, SAO PAULO","[-23.5663706, -46.6367462]"
2316,306713,AVENIDA AMADOR BUENO DA VEIGA,100,SAO PAULO,,,"AVENIDA AMADOR BUENO DA VEIGA, 100, SAO PAULO","[-23.5245551802915, -46.54508978029149]"
2317,306740,RUA ENG JOSE CRUZ DE OLIVEIRA,20,SAO PAULO,,,"RUA ENG JOSE CRUZ DE OLIVEIRA, 20, SAO PAULO","[-23.4937384802915, -46.45939258029149]"
2318,307007,AVENIDA MARGINAL DO RIO PINHEIROS,1,SAO PAULO,,,"AVENIDA MARGINAL DO RIO PINHEIROS, 1, SAO PAULO","[-23.6464660802915, -46.72883278029149]"
2319,307025,ESTRADA DE ITAPECERICA,1,SAO PAULO,,,"ESTRADA DE ITAPECERICA, 1, SAO PAULO","[-23.6452717802915, -46.7438362802915]"
2320,307049,ACESSO AVENIDA MARGINAL DO RIO PINHEIROS,100,SAO PAULO,,,"ACESSO AVENIDA MARGINAL DO RIO PINHEIROS, 100, SAO PAULO","[-23.5721698802915, -46.70240818029151]"
2321,307295,ESTRADA DO M'BOI MIRIM,6831,SAO PAULO,,,"ESTRADA DO M'BOI MIRIM, 6831, SAO PAULO","[-23.7023785302915, -46.78285208029151]"
2322,307330,ESTRADA KEISHI MATSUMOTO,500,EMBU DAS ARTES,,,"ESTRADA KEISHI MATSUMOTO, 500, EMBU DAS ARTES","[-23.6344830802915, -46.8534515802915]"
2323,307444,AVENIDA DO TABOAO,100,SAO BERNARDO DO CAMPO,,,"AVENIDA DO TABOAO, 100, SAO BERNARDO DO CAMPO","[-23.6493639802915, -46.58183948029149]"
2324,307550,AEROPORTO DE SAO PAULO/CONGONHAS  AVENIDA WASHINGTON,8,SAO PAULO,,,"AEROPORTO DE SAO PAULO/CONGONHAS  AVENIDA WASHINGTON, 8, SAO PAULO","[-23.6286735802915, -46.6579331802915]"
2325,307576,VIADUTO RAPOSO TAVARES,3,SAO PAULO,,,"VIADUTO RAPOSO TAVARES, 3, SAO PAULO","[-23.5923721302915, -46.7998499302915]"
2326,307656,AVENIDA SANTOS DUMONT,100,SAO PAULO,,,"AVENIDA SANTOS DUMONT, 100, SAO PAULO","[-23.5272551802915, -46.63207098029149]"
2327,307676,AVENIDA DOUTOR JOSE FORNARI,100,SAO BERNARDO DO CAMPO,,,"AVENIDA DOUTOR JOSE FORNARI, 100, SAO BERNARDO DO CAMPO","[-23.7259443802915, -46.55085098029149]"
2328,307756,RUA FRANCISCO DE OLIVEIRA,25,SAO PAULO,,,"RUA FRANCISCO DE OLIVEIRA, 25, SAO PAULO","[-23.5225646802915, -46.5151761802915]"
2329,307914,RUA HENRY CHARLES POTEL,0,SAO PAULO,,,"RUA HENRY CHARLES POTEL, 0, SAO PAULO","[-23.4713834802915, -46.6782700802915]"
2330,308041,AVENIDA INTERLAGOS,6538,SAO PAULO,,,"AVENIDA INTERLAGOS, 6538, SAO PAULO","[-23.7047707302915, -46.70378033029149]"
2331,308141,R SETE DE SETEMBRO  CENTRO  R SETE DE SETEMBRO,610,GUARULHOS,,,"R SETE DE SETEMBRO  CENTRO  R SETE DE SETEMBRO, 610, GUARULHOS","[-23.4699042802915, -46.5287865802915]"
2332,308204,RUA JOAQUIM NABUCO,1652,SAO PAULO,,,"RUA JOAQUIM NABUCO, 1652, SAO PAULO","[-23.6344013802915, -46.6739404802915]"
2333,308280,Avenida Morvan Dias de Figueiredo,345,SAO PAULO,,,"Avenida Morvan Dias de Figueiredo, 345, SAO PAULO","[-23.5197974802915, -46.6230498802915]"
2334,308559,ESTRADA CANAL DE COCAIA,1946,SAO PAULO,,,"ESTRADA CANAL DE COCAIA, 1946, SAO PAULO","[-23.7422765802915, -46.6688859802915]"
2335,308569,AVENIDA OLAVO FONTOURA,0,SAO PAULO,,,"AVENIDA OLAVO FONTOURA, 0, SAO PAULO","[-23.5182381, -46.6524305]"
2336,308582,AVENIDA PIRAPORINHA,1,SAO BERNARDO DO CAMPO,,,"AVENIDA PIRAPORINHA, 1, SAO BERNARDO DO CAMPO","[-23.69121528029151, -46.5763923802915]"
2337,308703,ESTRADA PIRAJUSSARA VALO VELHO,440,SAO PAULO,,,"ESTRADA PIRAJUSSARA VALO VELHO, 440, SAO PAULO","[-23.6436568802915, -46.78335808029151]"
2338,308801,PRACA NICOLA VIVILECHIO,2,TABOAO DA SERRA,,,"PRACA NICOLA VIVILECHIO, 2, TABOAO DA SERRA","[-23.61002468029151, -46.7599121802915]"
2339,308810,AVENIDA JOAO VINTE E TRES,1128,SAO PAULO,,,"AVENIDA JOAO VINTE E TRES, 1128, SAO PAULO","[-23.5724158802915, -46.5320705802915]"
2340,308837,AVENIDA VINTE E TRES DE MAIO,1,SAO PAULO,,,"AVENIDA VINTE E TRES DE MAIO, 1, SAO PAULO","[-23.5506059802915, -46.63983598029149]"
2341,308868,RUA MIGUEL ANGELO LAPENA,255,SAO PAULO,,,"RUA MIGUEL ANGELO LAPENA, 255, SAO PAULO","[-23.4924772802915, -46.4435475802915]"
2342,308898,ESTRADA KEISHI MATSUMOTO,1867,EMBU DAS ARTES,,,"ESTRADA KEISHI MATSUMOTO, 1867, EMBU DAS ARTES","[-23.6229087802915, -46.8510066802915]"
2343,309067,AVENIDA DO TABOAO,2,SAO BERNARDO DO CAMPO,,,"AVENIDA DO TABOAO, 2, SAO BERNARDO DO CAMPO","[-23.6493634802915, -46.58090473029149]"
2344,309083,AVENIDA EUSEBIO MATOSO,0,SAO PAULO,,,"AVENIDA EUSEBIO MATOSO, 0, SAO PAULO","[-23.5723902802915, -46.6939046802915]"
2345,309291,ESTRADA CUMBICA,410,SAO PAULO,,,"ESTRADA CUMBICA, 410, SAO PAULO","[-23.7356015802915, -46.7463642802915]"
2346,309421,RUA DOS TRILHOS,100,SAO PAULO,,,"RUA DOS TRILHOS, 100, SAO PAULO","[-23.5538500802915, -46.6097583802915]"
2347,309505,AVENIDA SANTOS DUMONT,10,GUARULHOS,,,"AVENIDA SANTOS DUMONT, 10, GUARULHOS","[-23.4509440802915, -46.4751453802915]"
2348,309552,RUA JOSE PORFIRIO DE SOUZA,856,SAO PAULO,,,"RUA JOSE PORFIRIO DE SOUZA, 856, SAO PAULO","[-23.6041357802915, -46.78346318029149]"
2349,309611,"AVENIDA WASHINGTON LUIS  AV WASHINGTON LUIS, SAO PAU",0,SAO PAULO,,,"AVENIDA WASHINGTON LUIS  AV WASHINGTON LUIS, SAO PAU, 0, SAO PAULO","[-23.6596792802915, -46.69972188029149]"
