,Unnamed: 0,Logradouro,Numero/KM,Município,Longitude,Latitude,Endereço,Location
2450,322609,RUA SOLDADO CRISTOVAO MORAIS GARCIA,100,SAO PAULO,,,"RUA SOLDADO CRISTOVAO MORAIS GARCIA, 100, SAO PAULO","[-23.5208690802915, -46.5661984802915]"
2451,322640,MOGI  DUTRA,10,MOGI DAS CRUZES,,,"MOGI  DUTRA, 10, MOGI DAS CRUZES","[-23.5118581802915, -46.2075889802915]"
2452,322695,Avenida Presidente Castelo Branco,190,SAO PAULO,,,"Avenida Presidente Castelo Branco, 190, SAO PAULO","[-23.5221493802915, -46.6384647802915]"
2453,322759,Avenida Otaviano Alves de Lima,444,SAO PAULO,,,"Avenida Otaviano Alves de Lima, 444, SAO PAULO","[-23.5087452802915, -46.7158957802915]"
2454,322797,ESTRADA DE ITAPECERICA,23480,SAO PAULO,,,"ESTRADA DE ITAPECERICA, 23480, SAO PAULO","[-23.6714815802915, -46.78794088029149]"
2455,322884,Rua Hungria,284,SAO PAULO,,,"Rua Hungria, 284, SAO PAULO","[-23.5855735802915, -46.6922315802915]"
2456,323138,AVENIDA DOUTOR HUGO BEOLCHI,1,SAO PAULO,,,"AVENIDA DOUTOR HUGO BEOLCHI, 1, SAO PAULO","[-23.6346455, -46.6429205802915]"
2457,323497,ACESSO  M BOI MIRIM,5.6,SAO PAULO,,,"ACESSO  M BOI MIRIM, 5.6, SAO PAULO","[-23.7082288802915, -46.78119418029149]"
2458,323506,RUA CHAPADA DE MINAS,210,SAO PAULO,,,"RUA CHAPADA DE MINAS, 210, SAO PAULO","[-23.6287239302915, -46.7467694802915]"
2459,323521,PONTE DO PIQUERI  PRACA COMENDADOR HIADA TORLAY,10,SAO PAULO,,,"PONTE DO PIQUERI  PRACA COMENDADOR HIADA TORLAY, 10, SAO PAULO","[-23.5101385802915, -46.7069705802915]"
2460,323534,RUA TAUBATE,91,ITAQUAQUECETUBA,,,"RUA TAUBATE, 91, ITAQUAQUECETUBA","[-23.4907191802915, -46.3619722802915]"
2461,323703,AVENIDA SANTOS DUMONT,1,SAO PAULO,,,"AVENIDA SANTOS DUMONT, 1, SAO PAULO","[-23.5075575802915, -46.6292556802915]"
2462,323708,"PTE ENG ARI TORRES  PTE ENG ARI TORRES, SAO P",1,SAO PAULO,,,"PTE ENG ARI TORRES  PTE ENG ARI TORRES, SAO P, 1, SAO PAULO","[-23.59518528029151, -46.69540568029149]"
2463,323797,RUA NICOLAU GENTILE,0,TABOAO DA SERRA,,,"RUA NICOLAU GENTILE, 0, TABOAO DA SERRA","[-23.6383769802915, -46.7840619802915]"
2464,324017,AVENIDA MARGINAL TIETE,100,SAO PAULO,,,"AVENIDA MARGINAL TIETE, 100, SAO PAULO","[-23.5319476802915, -46.75172628029149]"
2465,324080,AVENIDA DIAMANTINA,186,FRANCISCO MORATO,,,"AVENIDA DIAMANTINA, 186, FRANCISCO MORATO","[-23.2888243802915, -46.7099693802915]"
2466,324415,RUA JOAO CACHOEIRA,1562,SAO PAULO,,,"RUA JOAO CACHOEIRA, 1562, SAO PAULO","[-23.5953214802915, -46.6763910802915]"
2467,324590,RUA IOLANDA MAHALI,1010,SANTANA DE PARNAIBA,,,"RUA IOLANDA MAHALI, 1010, SANTANA DE PARNAIBA","[-23.4328625802915, -46.8252041802915]"
2468,324646,AVENIDA SENADOR TEOTONIO VILELA,100,SAO PAULO,,,"AVENIDA SENADOR TEOTONIO VILELA, 100, SAO PAULO","[-23.7037140802915, -46.7027279802915]"
2469,324722,ESTR DO VARADOURO  ESTR DO VARADOURO  SANTA ISA,0,SANTA ISABEL,,,"ESTR DO VARADOURO  ESTR DO VARADOURO  SANTA ISA, 0, SANTA ISABEL","[-23.3025939802915, -46.2111409802915]"
2470,324782,PRACA MIGUEL ABRAHAO  VILA ARICANDUVA  PRACA MIG,1,SAO PAULO,,,"PRACA MIGUEL ABRAHAO  VILA ARICANDUVA  PRACA MIG, 1, SAO PAULO","[-23.53812, -46.54830668029149]"
2471,325275,AVENIDA INTERLAGOS,0,SAO PAULO,,,"AVENIDA INTERLAGOS, 0, SAO PAULO","[-23.6777851802915, -46.67961478029149]"
2472,325333,Rodovia dos Imigrantes,7,SAO PAULO,,,"Rodovia dos Imigrantes, 7, SAO PAULO","[-23.6060102802915, -46.62713168029151]"
2473,325398,AVENIDA FRANCISCO FERREIRA LOPES,100,MOGI DAS CRUZES,,,"AVENIDA FRANCISCO FERREIRA LOPES, 100, MOGI DAS CRUZES","[-23.5342135802915, -46.2113279802915]"
2474,325736,RUA MARIA TERESA,99,SAO PAULO,,,"RUA MARIA TERESA, 99, SAO PAULO","[-23.5186136802915, -46.5465445802915]"
2475,325754,VIADUTO DOS BANDEIRANTES,100,SAO PAULO,,,"VIADUTO DOS BANDEIRANTES, 100, SAO PAULO","[-23.6153315, -46.6732501]"
2476,325782,ESTRADA DOS ALVARENGAS,601,SAO BERNARDO DO CAMPO,,,"ESTRADA DOS ALVARENGAS, 601, SAO BERNARDO DO CAMPO","[-23.7379678802915, -46.63318908029149]"
2477,325796,RUA BRASILIO RODRIGUES,187,SANTO ANDRE,,,"RUA BRASILIO RODRIGUES, 187, SANTO ANDRE","[-23.6938283802915, -46.5117833802915]"
2478,325826,PONTE ARICANDUVA,100,SAO PAULO,,,"PONTE ARICANDUVA, 100, SAO PAULO","[-23.5992040802915, -46.4687387802915]"
2479,325999,AVENIDA ESCOLA POLITECNICA,100,SAO PAULO,,,"AVENIDA ESCOLA POLITECNICA, 100, SAO PAULO","[-23.5595688802915, -46.7466419802915]"
2480,326327,MARGINAL PINHEIROS,100,SAO PAULO,,,"MARGINAL PINHEIROS, 100, SAO PAULO","[-23.5721698802915, -46.70240818029151]"
2481,326373,AVENIDA PRINCIPE DE GALES,3190,SANTO ANDRE,,,"AVENIDA PRINCIPE DE GALES, 3190, SANTO ANDRE","[-23.6625296, -46.55358080000001]"
2482,326578,"PARQUE SHOPPING MAIA  AVENIDA BARTOLOMEU DE CARLOS, 2",0,GUARULHOS,,,"PARQUE SHOPPING MAIA  AVENIDA BARTOLOMEU DE CARLOS, 2, 0, GUARULHOS","[-23.4448957802915, -46.54161138029149]"
2483,326827,AVENIDA PEDRO ALVARES CABRAL,100,SAO PAULO,,,"AVENIDA PEDRO ALVARES CABRAL, 100, SAO PAULO","[-23.5823526802915, -46.66051188029149]"
2484,326918,AVENIDA OTAVIO BRAGA DE MESQUITA,0,GUARULHOS,,,"AVENIDA OTAVIO BRAGA DE MESQUITA, 0, GUARULHOS","[-23.4659561, -46.5138553]"
2485,327041,RUA MIGUEL YUNES,115,SAO PAULO,,,"RUA MIGUEL YUNES, 115, SAO PAULO","[-23.6864243802915, -46.6924167802915]"
2486,327336,RUA POVOADO DO RIO NOVO,1778,SAO PAULO,,,"RUA POVOADO DO RIO NOVO, 1778, SAO PAULO","[-23.4717783802915, -46.7229802802915]"
2487,327395,AVENIDA GOIAS,100,SAO CAETANO DO SUL,,,"AVENIDA GOIAS, 100, SAO CAETANO DO SUL","[-23.6167692802915, -46.58055728029151]"
2488,327492,AVENIDA DOS AUTONOMISTAS,100,OSASCO,,,"AVENIDA DOS AUTONOMISTAS, 100, OSASCO","[-23.5326954802915, -46.7870888802915]"
2489,327529,RUA CARLOS VICARI,271,SAO PAULO,,,"RUA CARLOS VICARI, 271, SAO PAULO","[-23.5255852802915, -46.6856319802915]"
2490,327576,AVENIDA YERVANT KISSAJIKIAN,2248,SAO PAULO,,,"AVENIDA YERVANT KISSAJIKIAN, 2248, SAO PAULO","[-23.6780737302915, -46.6610485302915]"
2491,327886,ESTRADA DE BONSUCESSO,2600,GUARULHOS,,,"ESTRADA DE BONSUCESSO, 2600, GUARULHOS","[-23.4506087802915, -46.39224988029149]"
2492,328010,CENTRAL PLAZA SHOPPING  AVENIDA DR FRANCISCO MESQUIT,1836,SAO PAULO,,,"CENTRAL PLAZA SHOPPING  AVENIDA DR FRANCISCO MESQUIT, 1836, SAO PAULO","[-23.59505608029151, -46.5865038802915]"
2493,328403,ACESSO 15 DE NOVEMBRO,0,FERRAZ DE VASCONCELOS,,,"ACESSO 15 DE NOVEMBRO, 0, FERRAZ DE VASCONCELOS","[-23.5391881, -46.3795897]"
2494,328417,RUA VISCONDE DE SOUSA FRANCO,100,SAO PAULO,,,"RUA VISCONDE DE SOUSA FRANCO, 100, SAO PAULO","[-23.6002615802915, -46.51431488029151]"
2495,328476,ACESSO AVENIDA PROFESSOR LUIZ IGNACIO ANHAIA MELLO,100,SAO PAULO,,,"ACESSO AVENIDA PROFESSOR LUIZ IGNACIO ANHAIA MELLO, 100, SAO PAULO","[-23.5881531802915, -46.5908237802915]"
2496,328545,Rodovia Castelo Branco,0,OSASCO,,,"Rodovia Castelo Branco, 0, OSASCO","[-23.5135832802915, -46.80291898029151]"
2497,328621,MARGINAL TIETE PISTA EXPRESSA KM 18,0,SAO PAULO,,,"MARGINAL TIETE PISTA EXPRESSA KM 18, 0, SAO PAULO","[-23.5406327, -46.7575221]"
2498,328634,AVENIDA PRESIDENTE KENEDY,1259,SAO PAULO,,,"AVENIDA PRESIDENTE KENEDY, 1259, SAO PAULO","[-24.0060071802915, -46.42349008029149]"
2499,328972,RUA TITA RUFFO,759,SAO PAULO,,,"RUA TITA RUFFO, 759, SAO PAULO","[-23.6051394802915, -46.4786709802915]"
2500,328978,AVENIDA DOS METALURGICOS,100,SAO PAULO,,,"AVENIDA DOS METALURGICOS, 100, SAO PAULO","[-23.5816994802915, -46.4121530802915]"
2501,329002,RUA PADRE MANUEL LUIS DE VERGUEIRO,867,SAO PAULO,,,"RUA PADRE MANUEL LUIS DE VERGUEIRO, 867, SAO PAULO","[-23.5720061802915, -46.5138889802915]"
2502,329091,ACESSO DOUTOR EDUARDO COTCHING,1790,SAO PAULO,,,"ACESSO DOUTOR EDUARDO COTCHING, 1790, SAO PAULO","[-23.5688069802915, -46.5447230802915]"
2503,329101,ACESSO AVENIDA VINTE E TRES DE MAIO,100,SAO PAULO,,,"ACESSO AVENIDA VINTE E TRES DE MAIO, 100, SAO PAULO","[-23.5684031802915, -46.6422459802915]"
2504,329141,AVENIDA NELSON BRAIDO,10,SAO CAETANO DO SUL,,,"AVENIDA NELSON BRAIDO, 10, SAO CAETANO DO SUL","[-23.6295222, -46.5818897]"
2505,329237,AVENIDA ARICANDUVA,14000,SAO PAULO,,,"AVENIDA ARICANDUVA, 14000, SAO PAULO","[-23.5992318802915, -46.46952118029149]"
2506,329336,VIADUTO ENG ALBERTO BADRA  VIADUTO ENG ALBERTO,100,SAO PAULO,,,"VIADUTO ENG ALBERTO BADRA  VIADUTO ENG ALBERTO, 100, SAO PAULO","[-23.5376797802915, -46.5492448802915]"
2507,329466,Rodovia Fernão Dias,100,SAO PAULO,,,"Rodovia Fernão Dias, 100, SAO PAULO","[-23.4731035802915, -46.56589768029149]"
2508,329504,Rodovia dos Bandeirantes,14.9,SAO PAULO,,,"Rodovia dos Bandeirantes, 14.9, SAO PAULO","[-23.1099207802915, -47.00979248029149]"
2509,329566,AVENIDA SARGENTO GERALDO SANTANA,1628,SAO PAULO,,,"AVENIDA SARGENTO GERALDO SANTANA, 1628, SAO PAULO","[-23.6665272802915, -46.68001288029149]"
2510,329662,RUA CAFE FILHO,35026,SAO BERNARDO DO CAMPO,,,"RUA CAFE FILHO, 35026, SAO BERNARDO DO CAMPO","[-23.7055638802915, -46.56554373029151]"
2511,329772,AVENIDA VITOR GABRIEL,3284,SAO PAULO,,,"AVENIDA VITOR GABRIEL, 3284, SAO PAULO","[-23.6337108302915, -46.77463108029149]"
2512,330095,Rodovia Castelo Branco,10,SAO PAULO,,,"Rodovia Castelo Branco, 10, SAO PAULO","[-23.5112329802915, -46.8185051802915]"
2513,330236,RUA JOSE MASCARENHAS,0,SAO PAULO,,,"RUA JOSE MASCARENHAS, 0, SAO PAULO","[-23.5394413802915, -46.52829248029149]"
2514,330300,RUA ALAGOAS,9999999,SAO PAULO,,,"RUA ALAGOAS, 9999999, SAO PAULO","[-23.5486834, -46.6657058]"
2515,330488,AVENIDA SENADOR TEOTONIO VILELA,8500,SAO PAULO,,,"AVENIDA SENADOR TEOTONIO VILELA, 8500, SAO PAULO","[-23.7720925802915, -46.7201228802915]"
2516,330499,COLEGIO REGINA MUNDI  R MARQUES DE LAGES  2002,0,SAO PAULO,,,"COLEGIO REGINA MUNDI  R MARQUES DE LAGES  2002, 0, SAO PAULO","[-23.6255856802915, -46.6018458802915]"
2517,330509,COMPLEXO VIARIO AYRTON SENNA  COMPLEXO VIARIO AYR,100,SAO PAULO,,,"COMPLEXO VIARIO AYRTON SENNA  COMPLEXO VIARIO AYR, 100, SAO PAULO","[-23.5891434, -46.6681199]"
2518,330544,AVENIDA PRESTES MAIA,900,SAO PAULO,,,"AVENIDA PRESTES MAIA, 900, SAO PAULO","[-23.5385756802915, -46.63493658029149]"
2519,330617,ESTRADA DO M'BOI MIRIM,1663,SAO PAULO,,,"ESTRADA DO M'BOI MIRIM, 1663, SAO PAULO","[-23.6764439802915, -46.7494567802915]"
2520,330693,RUA SANTA CRUZ,1801,SAO PAULO,,,"RUA SANTA CRUZ, 1801, SAO PAULO","[-23.6028744802915, -46.6223816802915]"
2521,330715,ROMEIROS KM 37,0,SANTANA DE PARNAIBA,,,"ROMEIROS KM 37, 0, SANTANA DE PARNAIBA","[-23.5051835, -46.9822352]"
2522,331009,AVENIDA EDU CHAVES,553,SAO PAULO,,,"AVENIDA EDU CHAVES, 553, SAO PAULO","[-23.4737889802915, -46.5728662802915]"
2523,331264,AVENIDA GETULIO VARGAS,0,OSASCO,,,"AVENIDA GETULIO VARGAS, 0, OSASCO","[-23.5058012802915, -46.78931608029149]"
2524,331545,AVENIDA ARICANDUVA,10300,SAO PAULO,,,"AVENIDA ARICANDUVA, 10300, SAO PAULO","[-23.5900416802915, -46.48280088029149]"
2525,331648,AVENIDA RIO DAS PEDRAS,0,SAO PAULO,,,"AVENIDA RIO DAS PEDRAS, 0, SAO PAULO","[-23.5845949802915, -46.4932929802915]"
2526,331673,Rodovia dos Imigrantes,10,DIADEMA,,,"Rodovia dos Imigrantes, 10, DIADEMA","[-23.6826221802915, -46.6124403802915]"
2527,332633,AVENIDA LUIZ DUMONT VILLARES,707,SAO PAULO,,,"AVENIDA LUIZ DUMONT VILLARES, 707, SAO PAULO","[-23.4969594802915, -46.61354678029151]"
2528,332677,AVENIDA PREFEITO CARLOS FERREIRA LOPES,100,MOGI DAS CRUZES,,,"AVENIDA PREFEITO CARLOS FERREIRA LOPES, 100, MOGI DAS CRUZES","[-23.5164947, -46.1936106]"
2529,332930,ESTRADA SAPOPEMBA,100,MAUA,,,"ESTRADA SAPOPEMBA, 100, MAUA","[-23.6398811802915, -46.39402358029151]"
2530,332943,RUA ALDEIA DOS MACHACALIS,196,SAO PAULO,,,"RUA ALDEIA DOS MACHACALIS, 196, SAO PAULO","[-23.5289729802915, -46.42097468029149]"
2531,332945,AVENIDA MARECHAL TITO,1817,SAO PAULO,,,"AVENIDA MARECHAL TITO, 1817, SAO PAULO","[-23.4961308302915, -46.4294993302915]"
2532,333062,AVENIDA SALIM FARAH MALUF,100,SAO PAULO,,,"AVENIDA SALIM FARAH MALUF, 100, SAO PAULO","[-23.5770964802915, -46.57279708029149]"
2533,333080,RUA JERUSALEM,1234,EMBU DAS ARTES,,,"RUA JERUSALEM, 1234, EMBU DAS ARTES","[-23.6668642802915, -46.8122406802915]"
2534,333088,AVENIDA CUPECE,0,SAO PAULO,,,"AVENIDA CUPECE, 0, SAO PAULO","[-23.6755061802915, -46.6440138802915]"
2535,333207,Rodovia Índio-Tibiriçá,12588,SUZANO,,,"Rodovia Índio-Tibiriçá, 12588, SUZANO","[-23.6453172802915, -46.3234637802915]"
2536,333282,Rodovia Anhieta,99,SAO PAULO,,,"Rodovia Anhieta, 99, SAO PAULO","[-23.6454158802915, -46.5863609802915]"
2537,333458,RUA SAO PASCAL,269,SAO PAULO,,,"RUA SAO PASCAL, 269, SAO PAULO","[-23.5336608802915, -46.4308498802915]"
2538,333734,ACESSO AVENIDA AVENIDA RAGUEB CHOHFI,100,SAO PAULO,,,"ACESSO AVENIDA AVENIDA RAGUEB CHOHFI, 100, SAO PAULO","[-23.6126079802915, -46.47541818029149]"
2539,333931,ESTRADA BELA VISTA,100,SANTANA DE PARNAIBA,,,"ESTRADA BELA VISTA, 100, SANTANA DE PARNAIBA","[-23.4624127802915, -46.8812073802915]"
2540,334136,AVENIDA JACUPESSEGO,100,SAO PAULO,,,"AVENIDA JACUPESSEGO, 100, SAO PAULO","[-23.5507665802915, -46.48816378029149]"
2541,334265,PARQUE RAPOSO TAVARES,10,SAO PAULO,,,"PARQUE RAPOSO TAVARES, 10, SAO PAULO","[-23.5896773802915, -46.7575805802915]"
2542,334497,RUA VINTE E UM DE MARCO,100,FRANCISCO MORATO,,,"RUA VINTE E UM DE MARCO, 100, FRANCISCO MORATO","[-23.2856859802915, -46.74730708029149]"
2543,334509,RUA BELISARIO JOSE DE OLIVEIRA,112,EMBU DAS ARTES,,,"RUA BELISARIO JOSE DE OLIVEIRA, 112, EMBU DAS ARTES","[-23.6449904802915, -46.9041038802915]"
2544,334530,AVENIDA FABIO EDUARDO RAMOS ESQUIVEL,100,DIADEMA,,,"AVENIDA FABIO EDUARDO RAMOS ESQUIVEL, 100, DIADEMA","[-23.6870026802915, -46.62623758029149]"
2545,334565,VIADUTO PRESIDENTE DOUTOR TANCREDO DE ALMEIDA NEVE,61,OSASCO,,,"VIADUTO PRESIDENTE DOUTOR TANCREDO DE ALMEIDA NEVE, 61, OSASCO","[-23.5226864802915, -46.79024468029151]"
2546,334627,AVENIDA SENADOR TEOTONIO VILELA,100,SAO PAULO,,,"AVENIDA SENADOR TEOTONIO VILELA, 100, SAO PAULO","[-23.7037140802915, -46.7027279802915]"
2547,335289,RUA AUGUSTA,100,SAO PAULO,,,"RUA AUGUSTA, 100, SAO PAULO","[-23.5514053302915, -46.6485374302915]"
2548,335310,ESTRADA DO M'BOI MIRIM,1662,SAO PAULO,,,"ESTRADA DO M'BOI MIRIM, 1662, SAO PAULO","[-23.6759071802915, -46.74944548029151]"
2549,335606,Rodovia dos Imigrantes,15,DIADEMA,,,"Rodovia dos Imigrantes, 15, DIADEMA","[-23.7144362802915, -46.6060352802915]"
